{"type":"Feature","properties":{"source_url":"https://raw.githubusercontent.com/vuski/admdongkor/7360288277dfd12d74e54b959c59bdd66f852e3a/ver20260701/HangJeongDong_ver20260701.geojson","boundary_date":"2026-07-01","license":"CC BY 4.0; 원자료 SGIS 공공누리 제1유형","attribution":"통계청 통계지리정보서비스(SGIS) 행정동 경계 · 가공: vuski/admdongkor","display_name":"월계1·2·3동 전체","combined_from":["1135056000","1135057000","1135058000"],"processing":"세 행정동의 기하학적 합집합; 내부 공유 경계 제거"},"geometry":{"type":"Polygon","coordinates":[[[127.06800857238747,37.61553675426198],[127.06801197862414,37.61543761906754],[127.06774837079908,37.615221458271755],[127.06605194151736,37.61430486632415],[127.06594372381518,37.614281944675994],[127.06486632553198,37.6142220386233],[127.0628925772738,37.61434391558401],[127.06274332272696,37.61431406900919],[127.06242197958605,37.614285837610005],[127.06220997009201,37.614332371748624],[127.06201426203482,37.614375585975765],[127.06171702829765,37.614519571489005],[127.06151570909817,37.61461709696164],[127.06146171720876,37.614646189953724],[127.06123067319538,37.614771316237366],[127.06091110833297,37.61494721882659],[127.0606059962732,37.615651383411425],[127.05690909367502,37.61811524061525],[127.05420819236393,37.62017465517392],[127.05396214394193,37.62038045700041],[127.05384471611694,37.62047877302362],[127.0537318603156,37.62057519086872],[127.05335326119129,37.62090150859793],[127.05272211005695,37.62152540572227],[127.05216973796297,37.62209468058839],[127.05110540681335,37.623245479284904],[127.04998624978273,37.62443094627259],[127.04824313840281,37.62646750941026],[127.0461649238287,37.62809043681941],[127.04289314324956,37.63043590057197],[127.04215639726725,37.6308757908823],[127.04196678533623,37.6309889022168],[127.04148121127378,37.63127886172987],[127.04290329750803,37.63269611996791],[127.04352858470871,37.63307932042195],[127.04393582332892,37.6334369241429],[127.04402538845939,37.63361753809455],[127.04491795072855,37.63592381901408],[127.04492203841399,37.63596106457019],[127.0450142656952,37.63686730150587],[127.04529596194857,37.63748693096588],[127.04551142611903,37.63782916108731],[127.04635477568512,37.639156229310544],[127.0479963370461,37.641696416249],[127.05059673257108,37.6451472067233],[127.05124751543232,37.64519587752931],[127.05126119278462,37.64515987606064],[127.05224743529143,37.64278859882749],[127.05233289938472,37.64259626220829],[127.0526178710796,37.6420937206894],[127.05289194205507,37.6417545046208],[127.05320505510612,37.64140078901044],[127.05337536888979,37.641234686353],[127.05361813026067,37.6410350574008],[127.05400952496252,37.640740222733044],[127.05413035751998,37.64067307909147],[127.0541928021617,37.640657604744845],[127.05427367024828,37.64063756709279],[127.05437139611449,37.64064356962695],[127.05493672299355,37.640761750913406],[127.058878455457,37.63763201019638],[127.0595875801588,37.636547419421],[127.06027881027593,37.63548979761414],[127.06049947577517,37.63518867120438],[127.06087557576356,37.63471348849469],[127.06118047078438,37.63442168761305],[127.06160262266577,37.63406610124106],[127.06222467742296,37.63354366917038],[127.06228243372524,37.63349513991735],[127.06289108779785,37.632983640970615],[127.06358708756207,37.63235154450304],[127.06370224433282,37.63223853228068],[127.0638627157962,37.63205209757234],[127.06395315170474,37.631909344143146],[127.06401514261049,37.63178563900558],[127.0641474210322,37.63145263198656],[127.06439217268351,37.630783164295835],[127.0646905926653,37.62928804112901],[127.06484409954571,37.62887372046137],[127.06494029946013,37.62861408360546],[127.06535075413467,37.62818971300955],[127.06715776752559,37.626456768403365],[127.06825802986991,37.625548191852396],[127.07004587887576,37.623552616157546],[127.0708313939844,37.621570271332594],[127.0711673369631,37.6180765406348],[127.07117662218592,37.617321817494826],[127.07118668487894,37.61643403641954],[127.07118706084962,37.61636856878375],[127.06800697390771,37.61556823410261],[127.06800857238747,37.61553675426198]]]}}
